NORAD_CAT_ID,OBJECT_NAME,OBJECT_TYPE,EPOCH,MEAN_MOTION,ECCENTRICITY,INCLINATION,RA_OF_ASC_NODE,ARG_OF_PERICENTER,MEAN_ANOMALY,BSTAR,MEAN_MOTION_DOT,MEAN_MOTION_DDOT,TLE_LINE0,TLE_LINE1,TLE_LINE2,SEMIMAJOR_AXIS,PERIOD,APOGEE,PERIGEE,DECAYED
51971.0,STARLINK-3669,PAYLOAD,2022-11-05 10:24:26,15.08835493,0.000168,53.218,107.0594,55.5324,304.5827,-9.6758e-05,-1.827e-05,0.0,0 STARLINK-3669,1 51971U 22025R   22309.43364176 -.00001827  00000-0 -96758-4 0  9993,2 51971  53.2180 107.0594 0001680  55.5324 304.5827 15.08835493 36980,6917.894,95.438,540.9209999999998,538.597,0.0
51971.0,STARLINK-3669,PAYLOAD,2022-11-05 13:35:12,15.08834777,0.000193,53.2169,106.4638,65.8051,294.3142,-7.7579e-05,-1.522e-05,0.0,0 STARLINK-3669,1 51971U 22025R   22309.56612227 -.00001522  00000-0 -77579-4 0  9992,2 51971  53.2169 106.4638 0001930  65.8051 294.3142 15.08834777 37002,6917.896,95.438,541.097,538.4259999999998,0.0
51971.0,STARLINK-3669,PAYLOAD,2022-11-06 11:50:35,15.08845056,0.0001592,53.2179,102.301,57.2548,302.8597,5.2402e-05,5.46e-06,0.0,0 STARLINK-3669,1 51971U 22025R   22310.49347123  .00000546  00000-0  52402-4 0  9997,2 51971  53.2179 102.3010 0001592  57.2548 302.8597 15.08845056 38251,6917.865,95.437,540.831,538.629,0.0
51971.0,STARLINK-3669,PAYLOAD,2022-11-06 19:47:32,15.08837295,0.0001549,53.2187,100.8164,45.7642,314.3477,2.2213e-05,6.6e-07,0.0,0 STARLINK-3669,1 51971U 22025R   22310.82467664  .00000066  00000-0  22213-4 0  9991,2 51971  53.2187 100.8164 0001549  45.7642 314.3477 15.08837295 38309,6917.889,95.438,540.825,538.682,0.0
51971.0,STARLINK-3669,PAYLOAD,2022-11-07 11:41:23,15.08837065,0.0001678,53.2183,97.8422,52.5241,307.5904,0.00017423,2.486e-05,0.0,0 STARLINK-3669,1 51971U 22025R   22311.48707734  .00002486  00000-0  17423-3 0  9993,2 51971  53.2183  97.8422 0001678  52.5241 307.5904 15.08837065 37292,6917.889,95.438,540.915,538.594,0.0
51971.0,STARLINK-3669,PAYLOAD,2022-11-08 06:46:00,15.08844549,0.000183,53.2179,94.273,57.0522,303.0646,6.779e-05,7.91e-06,0.0,0 STARLINK-3669,1 51971U 22025R   22312.28195559  .00000791  00000-0  67790-4 0  9998,2 51971  53.2179  94.2730 0001830  57.0522 303.0646 15.08844549 38528,6917.866,95.437,540.997,538.466,0.0
51971.0,STARLINK-3669,PAYLOAD,2022-11-08 08:21:23,15.08850373,0.0001845,53.218,93.9762,55.1404,304.9761,0.00011848,1.599e-05,0.0,0 STARLINK-3669,1 51971U 22025R   22312.34819088  .00001599  00000-0  11848-3 0  9994,2 51971  53.2180  93.9762 0001845  55.1404 304.9761 15.08850373 37423,6917.849,95.437,540.99,538.437,0.0
51971.0,STARLINK-3669,PAYLOAD,2022-11-08 16:18:18,15.08863036,0.0001903,53.2179,92.4902,49.4869,310.6288,0.0003485,5.266e-05,0.0,0 STARLINK-3669,1 51971U 22025R   22312.67938641  .00005266  00000-0  34850-3 0  9990,2 51971  53.2179  92.4902 0001903  49.4869 310.6288 15.08863036 38583,6917.81,95.436,540.991,538.359,0.0
51971.0,STARLINK-3669,PAYLOAD,2022-11-09 14:33:43,15.08827773,0.0001743,53.2183,88.3277,45.5981,314.5154,-0.00024635,-4.205e-05,0.0,0 STARLINK-3669,1 51971U 22025R   22313.60675631 -.00004205  00000-0 -24635-3 0  9995,2 51971  53.2183  88.3277 0001743  45.5981 314.5154 15.08827773 37617,6917.918000000002,95.438,540.989,538.577,0.0
51971.0,STARLINK-3669,PAYLOAD,2022-11-09 16:09:07,15.08814216,0.0001876,53.2178,88.0295,47.8969,312.2182,-0.00043474,-7.196e-05,0.0,0 STARLINK-3669,1 51971U 22025R   22313.67300419 -.00007196  00000-0 -43474-3 0  9995,2 51971  53.2178  88.0295 0001876  47.8969 312.2182 15.08814216 38734,6917.959,95.439,541.122,538.526,0.0
51971.0,STARLINK-3669,PAYLOAD,2022-11-10 11:13:44,15.08834683,0.0001896,53.2183,84.4613,47.6259,312.4894,3.4915e-05,2.67e-06,0.0,0 STARLINK-3669,1 51971U 22025R   22314.46787742  .00000267  00000-0  34915-4 0  9992,2 51971  53.2183  84.4613 0001896  47.6259 312.4894 15.08834683 37748,6917.897,95.438,541.073,538.45,0.0
51971.0,STARLINK-3669,PAYLOAD,2022-11-10 17:35:17,15.08841228,0.0001786999999999,53.2185,83.2724,45.8747,314.2392,0.0013336,0.00021001,0.0,0 STARLINK-3669,1 51971U 22025R   22314.73284269  .00021001  00000-0  13336-2 0  9999,2 51971  53.2185  83.2724 0001787  45.8747 314.2392 15.08841228 38894,6917.877,95.437,540.9780000000002,538.505,0.0
51971.0,STARLINK-3669,PAYLOAD,2022-11-11 12:39:55,15.08844875,0.0001659,53.2181,79.7048,42.7224,317.3897,0.00081655,0.00012733,0.0,0 STARLINK-3669,1 51971U 22025R   22315.52772061  .00012733  00000-0  81655-3 0  9991,2 51971  53.2181  79.7048 0001659  42.7224 317.3897 15.08844875 39013,6917.865,95.437,540.878,538.5830000000002,0.0
51971.0,STARLINK-3669,PAYLOAD,2022-11-11 17:26:04,15.08854297,0.0001679,53.2184,78.8124,43.6556,316.4569,0.00074971,0.00011668,0.0,0 STARLINK-3669,1 51971U 22025R   22315.72643868  .00011668  00000-0  74971-3 0  9994,2 51971  53.2184  78.8124 0001679  43.6556 316.4569 15.08854297 37935,6917.837,95.437,540.863,538.54,0.0
51971.0,STARLINK-3669,PAYLOAD,2022-11-12 01:23:00,15.08845113,0.0001898,53.2179,77.3248,46.6319,313.4831,0.00033624,5.068e-05,0.0,0 STARLINK-3669,1 51971U 22025R   22316.05764045  .00005068  00000-0  33624-3 0  9999,2 51971  53.2179  77.3248 0001898  46.6319 313.4831 15.08845113 39098,6917.865,95.437,541.043,538.4169999999998,0.0
51971.0,STARLINK-3669,PAYLOAD,2022-11-12 14:06:05,15.08837342,0.000184,53.2184,74.9468,43.0721,317.0415,2.9856e-05,1.87e-06,0.0,0 STARLINK-3669,1 51971U 22025R   22316.58756317  .00000187  00000-0  29856-4 0  9990,2 51971  53.2184  74.9468 0001840  43.0721 317.0415 15.08837342 39178,6917.889,95.438,541.026,538.481,0.0
51971.0,STARLINK-3669,PAYLOAD,2022-11-12 15:41:28,15.08836944,0.0001846,53.2184,74.6495,42.69,317.4236,2.4327e-05,9.9e-07,0.0,0 STARLINK-3669,1 51971U 22025R   22316.65380339  .00000099  00000-0  24327-4 0  9995,2 51971  53.2184  74.6495 0001846  42.6900 317.4236 15.08836944 38075,6917.89,95.438,541.0319999999998,538.4780000000002,0.0
51971.0,STARLINK-3669,PAYLOAD,2022-11-13 10:46:06,15.08839021,0.0001818,53.219,71.0814,40.8582,319.2546,0.00010413,1.369e-05,0.0,0 STARLINK-3669,1 51971U 22025R   22317.44868411  .00001369  00000-0  10413-3 0  9996,2 51971  53.2190  71.0814 0001818  40.8582 319.2546 15.08839021 38199,6917.8830000000025,95.438,541.006,538.491,0.0
51971.0,STARLINK-3669,PAYLOAD,2022-11-13 13:56:52,15.08837223,0.0001965,53.219,70.4872,39.9704,320.1432,7.6185e-05,9.24e-06,0.0,0 STARLINK-3669,1 51971U 22025R   22317.58116603  .00000924  00000-0  76185-4 0  9995,2 51971  53.2190  70.4872 0001965  39.9704 320.1432 15.08837223 38214,6917.889,95.438,541.113,538.395,0.0
51971.0,STARLINK-3669,PAYLOAD,2022-11-14 07:26:07,15.08829179,0.0001847,53.2192,67.2157,40.2696,319.8433,-3.1118e-06,-3.38e-06,0.0,0 STARLINK-3669,1 51971U 22025R   22318.30981270 -.00000338  00000-0 -31118-5 0  9995,2 51971  53.2192  67.2157 0001847  40.2696 319.8433 15.08829179 39432,6917.913000000001,95.438,541.056,538.501,0.0
51971.0,STARLINK-3669,PAYLOAD,2022-11-14 10:36:54,15.08829925,0.0001795,53.2199,66.62100000000001,40.5677,319.5448,3.9739e-05,3.44e-06,0.0,0 STARLINK-3669,1 51971U 22025R   22318.44229501  .00000344  00000-0  39739-4 0  9993,2 51971  53.2199  66.6210 0001795  40.5677 319.5448 15.08829925 38347,6917.911,95.438,541.018,538.534,0.0
51971.0,STARLINK-3669,PAYLOAD,2022-11-14 13:47:40,15.08832546,0.0001806,53.2199,66.0263,41.0889,319.0239,7.3173e-05,8.76e-06,0.0,0 STARLINK-3669,1 51971U 22025R   22318.57477348  .00000876  00000-0  73173-4 0  9991,2 51971  53.2199  66.0263 0001806  41.0889 319.0239 15.08832546 38361,6917.903,95.438,541.018,538.519,0.0
51971.0,STARLINK-3669,PAYLOAD,2022-11-15 05:41:31,15.08842444,0.0002025,53.219,63.0537,38.6608,321.4529,0.00022831,3.348e-05,0.0,0 STARLINK-3669,1 51971U 22025R   22319.23716902  .00003348  00000-0  22831-3 0  9998,2 51971  53.2190  63.0537 0002025  38.6608 321.4529 15.08842444 39579,6917.873000000001,95.437,541.139,538.337,0.0
51971.0,STARLINK-3669,PAYLOAD,2022-11-15 13:38:27,15.08842138,0.0001974,53.2191,61.5671,40.0293,320.0844,0.00020471,2.972e-05,0.0,0 STARLINK-3669,1 51971U 22025R   22319.56837084  .00002972  00000-0  20471-3 0  9999,2 51971  53.2191  61.5671 0001974  40.0293 320.0844 15.08842138 38519,6917.874,95.437,541.104,538.373,0.0
51971.0,STARLINK-3669,PAYLOAD,2022-11-16 10:18:27,15.08846688,0.0001926,53.2191,57.7003,38.4499,321.663,0.0001887,2.717e-05,0.0,0 STARLINK-3669,1 51971U 22025R   22320.42948763  .00002717  00000-0  18870-3 0  9990,2 51971  53.2191  57.7003 0001926  38.4499 321.6630 15.08846688 39752,6917.86,95.437,541.057,538.393,0.0
51971.0,STARLINK-3669,PAYLOAD,2022-11-17 02:12:19,15.08841921,0.0002047,53.2186,54.7274,34.4977,325.6148,-8.6344e-05,-1.662e-05,0.0,0 STARLINK-3669,1 51971U 22025R   22321.09189009 -.00001662  00000-0 -86344-4 0  9996,2 51971  53.2186  54.7274 0002047  34.4977 325.6148 15.08841921 39859,6917.875,95.437,541.156,538.323,0.0
51971.0,STARLINK-3669,PAYLOAD,2022-11-17 08:33:52,15.08832882,0.0002049,53.2191,53.5385,38.7304,321.3835,-3.5426e-05,-8.52e-06,0.0,0 STARLINK-3669,1 51971U 22025R   22321.35685648 -.00000852  00000-0 -35426-4 0  9990,2 51971  53.2191  53.5385 0002049  38.7304 321.3835 15.08832882 39894,6917.901999999999,95.438,541.185,538.35,0.0
51971.0,STARLINK-3669,PAYLOAD,2022-11-17 11:44:38,15.08834445,0.0002089,53.2194,52.9442,36.5112,323.6022,4.3763e-06,-2.19e-06,0.0,0 STARLINK-3669,1 51971U 22025R   22321.48933745 -.00000219  00000-0  43763-5 0  9998,2 51971  53.2194  52.9442 0002089  36.5112 323.6022 15.08834445 38801,6917.897,95.438,541.2080000000002,538.317,0.0
51971.0,STARLINK-3669,PAYLOAD,2022-11-18 02:03:06,15.08839871,0.0002014,53.2192,50.2683,36.6474,323.4655,0.00023162,3.4e-05,0.0,0 STARLINK-3669,1 51971U 22025R   22322.08549300  .00003400  00000-0  23162-3 0  9998,2 51971  53.2192  50.2683 0002014  36.6474 323.4655 15.08839871 40000,6917.880999999999,95.438,541.139,538.3530000000002,0.0
